OBJECT_NAME,OBJECT_ID,EPOCH,MEAN_MOTION,ECCENTRICITY,INCLINATION,RA_OF_ASC_NODE,ARG_OF_PERICENTER,MEAN_ANOMALY,EPHEMERIS_TYPE,CLASSIFICATION_TYPE,NORAD_CAT_ID,ELEMENT_SET_NO,REV_AT_EPOCH,BSTAR,MEAN_MOTION_DOT,MEAN_MOTION_DDOT
SL-16 R/B,1994-077B,2026-06-25T05:55:46.444512,14.15576532,.00033474,70.9825,126.2060,321.1088,38.9794,0,U,23405,999,63145,.13580427E-3,.218E-5,0
ARIANE 40+ R/B,1995-021B,2026-06-25T04:24:25.606080,14.39837455,.0006961,98.4407,246.1430,169.6922,244.4455,0,U,23561,999,63471,.90687542E-4,.241E-5,0
SL-16 R/B,1995-058B,2026-06-24T20:02:42.985536,14.15511996,.00142417,71.0228,315.3001,309.8898,50.0972,0,U,23705,999,58301,.34476221E-4,.2E-6,0
SL-16 R/B,1996-051B,2026-06-24T19:42:58.564224,14.12448513,.00161169,70.7649,308.4913,325.7909,34.2171,0,U,24298,999,53677,.9353807E-4,.124E-5,0
ORBVIEW 2 (SEASTAR),1997-037A,2026-06-25T04:11:40.506432,14.35557058,.00033165,98.8694,343.4153,100.4598,259.6961,0,U,24883,999,52389,.99851649E-4,.241E-5,0
SL-16 R/B,1998-043G,2026-06-24T20:53:14.463456,14.26069729,.00109008,98.8366,130.0958,66.4269,293.8055,0,U,25400,999,45426,.32952559E-4,.33E-6,0
SL-16 R/B,1998-045B,2026-06-24T20:44:28.524192,14.16202855,.00090308,71.0118,316.1835,231.6981,128.3331,0,U,25407,999,44227,.10273869E-3,.156E-5,0
ISS (ZARYA),1998-067A,2026-06-25T04:30:07.020000,15.49415960,.00044086,51.6326,260.4913,228.8642,131.1966,0,U,25544,999,57299,.17725469E-3,.947E-4,0
CZ-4B R/B,1999-025C,2026-06-25T00:56:35.401632,14.18284588,.00377545,98.6480,217.6802,37.5535,23.1095,0,U,25732,999,40338,.36180903E-4,.32E-6,0
OKEAN-O,1999-039A,2026-06-25T02:52:54.449760,14.80476021,.00013985,97.9312,234.8268,70.2079,289.9284,0,U,25860,999,45028,.80471202E-4,.564E-5,0
SL-16 R/B,1999-039B,2026-06-25T03:13:38.582976,14.81852153,.00133833,97.9834,234.9748,268.4965,91.4715,0,U,25861,999,45277,.64220836E-4,.454E-5,0
DELTA 2 R/B,1999-041E,2026-06-24T21:22:26.008320,14.12026765,.05009414,51.7636,233.0236,304.7877,50.6871,0,U,25876,999,37817,.15165266E-3,.706E-5,0
HELIOS 1B,1999-064A,2026-06-25T05:57:05.498784,14.88026293,.00025093,98.1610,81.6208,80.3960,279.7539,0,U,25977,999,70125,.15042396E-3,.1323E-4,0
TERRA,1999-068A,2026-06-25T05:33:41.374368,14.61108926,.00022189,97.9452,225.4590,165.9563,235.9013,0,U,25994,999,41078,.83493276E-4,.366E-5,0
SL-16 R/B,2000-006B,2026-06-25T06:15:22.580064,14.15837464,.00160343,71.0014,231.6497,10.4329,349.7124,0,U,26070,999,36378,.17870754E-3,.304E-5,0
TITAN 4B R/B,2000-047B,2026-06-25T06:32:41.307648,15.10239324,.00459286,67.9888,97.8138,278.8165,80.7785,0,U,26474,999,40915,.18474202E-3,.2964E-4,0
ENVISAT,2002-009A,2026-06-24T21:19:38.065728,14.39066372,.00014045,98.3837,127.0355,87.8833,287.7053,0,U,27386,999,27459,.34251085E-4,.63E-6,0
IDEFIX & ARIANE 42P R/B,2002-021B,2026-06-25T05:45:31.969440,14.31085420,.00107695,98.5942,113.6358,227.5806,132.4466,0,U,27422,999,25940,.83311969E-4,.176E-5,0
AQUA,2002-022A,2026-06-25T06:34:32.698848,14.62169245,.00008205,98.4280,145.7185,62.5296,40.4773,0,U,27424,999,28445,.15354055E-3,.723E-5,0
CZ-4B R/B,2002-024C,2026-06-25T03:55:15.282048,14.14565434,.0051204,98.8696,228.9316,78.0657,348.0893,0,U,27432,999,24443,.3124225E-4,.17E-6,0
MIDORI II (ADEOS-II),2002-056A,2026-06-24T21:47:51.212832,14.29353313,.00021204,98.7881,135.2338,67.0660,293.0745,0,U,27597,999,22561,.10196063E-3,.214E-5,0
H-2A R/B,2002-056E,2026-06-24T21:20:44.886624,14.33825041,.00695876,98.3314,132.2833,201.3158,178.5892,0,U,27601,999,22947,.74772377E-4,.172E-5,0
CZ-4B R/B,2003-049C,2026-06-25T06:38:17.218752,14.55104940,.00468832,98.6898,175.4452,263.2654,96.3205,0,U,28059,999,20224,.75973752E-4,.28E-5,0
CZ-2C R/B,2004-012C,2026-06-25T04:55:17.558112,15.80484064,.00103478,97.7082,252.8089,252.8763,107.1371,0,U,28222,999,22116,.63421906E-3,.12162E-2,0
SL-16 R/B,2004-021B,2026-06-25T05:20:21.019200,14.14607079,.00069228,71.0005,6.8250,244.2906,115.7502,0,U,28353,999,13804,.4885414E-4,.46E-6,0
CZ-4B R/B,2004-035C,2026-06-25T01:01:30.987264,15.30725689,.0029162,97.3368,209.0277,308.7922,51.0715,0,U,28415,999,19632,.26743773E-3,.7968E-4,0
CZ-2C R/B,2004-046B,2026-06-25T04:26:11.760576,14.27028139,.01389215,98.1939,84.4658,196.4938,163.1701,0,U,28480,999,12383,.41227454E-4,.7E-6,0
ARIANE 5 R/B,2004-049H,2026-06-25T05:07:18.344064,14.85457916,.0083908,98.2726,348.7763,3.5351,356.6438,0,U,28499,999,16175,.66251222E-4,.543E-5,0
CZ-2D R/B,2005-024B,2026-06-25T01:25:17.362272,15.70367373,.00017556,97.3484,195.8842,33.4601,326.6772,0,U,28738,999,15657,.50332428E-3,.6154E-3,0
ALOS (DAICHI),2006-002A,2026-06-24T20:23:58.130304,14.70063418,.00011689,98.1326,131.3935,58.7379,301.3941,0,U,28931,999,8922,.15362789E-3,.873E-5,0
