{"format":"tle-catalog-v1","generatedAt":"2026-06-25T16:01:17.978Z","count":6895,"entries":[{"name":"ALOS (DAICHI)","line1":"1 28931U 06002A   26175.84997836  .00000873  00000+0  15363-3 0  9994","line2":"2 28931  98.1326 131.3935 0001168  58.7379 301.3941 14.70063418 89220"},{"name":"AQUA","line1":"1 27424U 02022A   26176.27398957  .00000723  00000+0  15354-3 0  9999","line2":"2 27424  98.4280 145.7185 0000820  62.5296  40.4773 14.62169245284451"},{"name":"ARIANE 40+ R/B","line1":"1 23561U 95021B   26176.18362970  .00000241  00000+0  90688-4 0  9993","line2":"2 23561  98.4407 246.1430 0006961 169.6922 244.4455 14.39837455634716"},{"name":"ARIANE 5 R/B","line1":"1 28499U 04049H   26176.21340676  .00000543  00000+0  66251-4 0  9995","line2":"2 28499  98.2726 348.7763 0083908   3.5351 356.6438 14.85457916161756"},{"name":"CZ-2C R/B","line1":"1 28222U 04012C   26176.20506433  .00121620  00000+0  63422-3 0  9999","line2":"2 28222  97.7082 252.8089 0010347 252.8763 107.1371 15.80484064221165"},{"name":"CZ-2C R/B","line1":"1 28480U 04046B   26176.18485834  .00000070  00000+0  41227-4 0  9995","line2":"2 28480  98.1939  84.4658 0138921 196.4938 163.1701 14.27028139123835"},{"name":"CZ-2D R/B","line1":"1 28738U 05024B   26176.05922873  .00061540  00000+0  50332-3 0  9998","line2":"2 28738  97.3484 195.8842 0001755  33.4601 326.6772 15.70367373156576"},{"name":"CZ-4B R/B","line1":"1 25732U 99025C   26176.03929863  .00000032  00000+0  36181-4 0  9993","line2":"2 25732  98.6480 217.6802 0037754  37.5535  23.1095 14.18284588403383"},{"name":"CZ-4B R/B","line1":"1 27432U 02024C   26176.16337132  .00000017  00000+0  31242-4 0  9997","line2":"2 27432  98.8696 228.9316 0051204  78.0657 348.0893 14.14565434244431"},{"name":"CZ-4B R/B","line1":"1 28059U 03049C   26176.27658818  .00000280  00000+0  75974-4 0  9992","line2":"2 28059  98.6898 175.4452 0046883 263.2654  96.3205 14.55104940202247"},{"name":"CZ-4B R/B","line1":"1 28415U 04035C   26176.04271976  .00007968  00000+0  26744-3 0  9995","line2":"2 28415  97.3368 209.0277 0029162 308.7922  51.0715 15.30725689196322"},{"name":"DELTA 2 R/B","line1":"1 25876U 99041E   26175.89057880  .00000706  00000+0  15165-3 0  9990","line2":"2 25876  51.7636 233.0236 0500941 304.7877  50.6871 14.12026765378179"},{"name":"ENVISAT","line1":"1 27386U 02009A   26175.88863502  .00000063  00000+0  34251-4 0  9995","line2":"2 27386  98.3837 127.0355 0001404  87.8833 287.7053 14.39066372274595"},{"name":"H-2A R/B","line1":"1 27601U 02056E   26175.88940841  .00000172  00000+0  74772-4 0  9992","line2":"2 27601  98.3314 132.2833 0069587 201.3158 178.5892 14.33825041229478"},{"name":"HELIOS 1B","line1":"1 25977U 99064A   26176.24798031  .00001323  00000+0  15042-3 0  9997","line2":"2 25977  98.1610  81.6208 0002509  80.3960 279.7539 14.88026293701254"},{"name":"IDEFIX & ARIANE 42P R/B","line1":"1 27422U 02021B   26176.23995335  .00000176  00000+0  83312-4 0  9997","line2":"2 27422  98.5942 113.6358 0010769 227.5806 132.4466 14.31085420259400"},{"name":"ISS (ZARYA)","line1":"1 25544U 98067A   26176.18758125  .00009470  00000+0  17725-3 0  9993","line2":"2 25544  51.6326 260.4913 0004408 228.8642 131.1966 15.49415960572991"},{"name":"MIDORI II (ADEOS-II)","line1":"1 27597U 02056A   26175.90823163  .00000214  00000+0  10196-3 0  9992","line2":"2 27597  98.7881 135.2338 0002120  67.0660 293.0745 14.29353313225618"},{"name":"OKEAN-O","line1":"1 25860U 99039A   26176.12007465  .00000564  00000+0  80471-4 0  9996","line2":"2 25860  97.9312 234.8268 0001398  70.2079 289.9284 14.80476021450287"},{"name":"ORBVIEW 2 (SEASTAR)","line1":"1 24883U 97037A   26176.17477438  .00000241  00000+0  99852-4 0  9997","line2":"2 24883  98.8694 343.4153 0003316 100.4598 259.6961 14.35557058523892"},{"name":"SL-16 R/B","line1":"1 23405U 94077B   26176.24706533  .00000218  00000+0  13580-3 0  9993","line2":"2 23405  70.9825 126.2060 0003347 321.1088  38.9794 14.15576532631452"},{"name":"SL-16 R/B","line1":"1 23705U 95058B   26175.83521974  .00000020  00000+0  34476-4 0  9993","line2":"2 23705  71.0228 315.3001 0014241 309.8898  50.0972 14.15511996583011"},{"name":"SL-16 R/B","line1":"1 24298U 96051B   26175.82151116  .00000124  00000+0  93538-4 0  9990","line2":"2 24298  70.7649 308.4913 0016116 325.7909  34.2171 14.12448513536777"},{"name":"SL-16 R/B","line1":"1 25400U 98043G   26175.87030629  .00000033  00000+0  32953-4 0  9992","line2":"2 25400  98.8366 130.0958 0010900  66.4269 293.8055 14.26069729454261"},{"name":"SL-16 R/B","line1":"1 25407U 98045B   26175.86421903  .00000156  00000+0  10274-3 0  9996","line2":"2 25407  71.0118 316.1835 0009030 231.6981 128.3331 14.16202855442271"},{"name":"SL-16 R/B","line1":"1 25861U 99039B   26176.13447434  .00000454  00000+0  64221-4 0  9995","line2":"2 25861  97.9834 234.9748 0013383 268.4965  91.4715 14.81852153452779"},{"name":"SL-16 R/B","line1":"1 26070U 00006B   26176.26067801  .00000304  00000+0  17871-3 0  9996","line2":"2 26070  71.0014 231.6497 0016034  10.4329 349.7124 14.15837464363785"},{"name":"SL-16 R/B","line1":"1 28353U 04021B   26176.22246550  .00000046  00000+0  48854-4 0  9998","line2":"2 28353  71.0005   6.8250 0006922 244.2906 115.7502 14.14607079138049"},{"name":"TERRA","line1":"1 25994U 99068A   26176.23172887  .00000366  00000+0  83493-4 0  9996","line2":"2 25994  97.9452 225.4590 0002218 165.9563 235.9013 14.61108926410783"},{"name":"TITAN 4B R/B","line1":"1 26474U 00047B   26176.27270032  .00002964  00000+0  18474-3 0  9996","line2":"2 26474  67.9888  97.8138 0045928 278.8165  80.7785 15.10239324409156"}]}